[{"OBJECT_NAME":"LEMUR-2-LIA-MARTIN","OBJECT_ID":"2025-052AQ","EPOCH":"2026-03-09T16:52:54.660288","MEAN_MOTION":14.96805944,"ECCENTRICITY":0.00038171,"INCLINATION":97.6996,"RA_OF_ASC_NODE":322.6614,"ARG_OF_PERICENTER":139.7155,"MEAN_ANOMALY":220.435,"EPHEMERIS_TYPE":0,"CLASSIFICATION_TYPE":"U","NORAD_CAT_ID":63248,"ELEMENT_SET_NO":999,"REV_AT_EPOCH":5379,"BSTAR":0.0006082839,"MEAN_MOTION_DOT":6.911e-5,"MEAN_MOTION_DDOT":0},{"OBJECT_NAME":"STARLINK-33779","OBJECT_ID":"2025-094S","EPOCH":"2026-03-09T21:49:31.022976","MEAN_MOTION":14.98353234,"ECCENTRICITY":0.00026753,"INCLINATION":70.0014,"RA_OF_ASC_NODE":234.0017,"ARG_OF_PERICENTER":271.8394,"MEAN_ANOMALY":88.2459,"EPHEMERIS_TYPE":0,"CLASSIFICATION_TYPE":"U","NORAD_CAT_ID":63880,"ELEMENT_SET_NO":999,"REV_AT_EPOCH":4723,"BSTAR":0.00050903307,"MEAN_MOTION_DOT":5.989e-5,"MEAN_MOTION_DDOT":0}]
